[{"OBJECT_NAME":"NOAA 1","OBJECT_ID":"1970-106A","EPOCH":"2026-03-05T02:26:22.472736","MEAN_MOTION":12.54049236,"ECCENTRICITY":0.00317026,"INCLINATION":101.3522,"RA_OF_ASC_NODE":103.3252,"ARG_OF_PERICENTER":189.8568,"MEAN_ANOMALY":234.8516,"EPHEMERIS_TYPE":0,"CLASSIFICATION_TYPE":"U","NORAD_CAT_ID":4793,"ELEMENT_SET_NO":999,"REV_AT_EPOCH":52764,"BSTAR":9.853468e-5,"MEAN_MOTION_DOT":-2.7e-7,"MEAN_MOTION_DDOT":0},{"OBJECT_NAME":"NOAA 2 (ITOS-D)","OBJECT_ID":"1972-082A","EPOCH":"2026-03-05T08:01:48.485280","MEAN_MOTION":12.53211727,"ECCENTRICITY":0.00040173,"INCLINATION":102.0168,"RA_OF_ASC_NODE":81.7386,"ARG_OF_PERICENTER":13.6227,"MEAN_ANOMALY":357.3827,"EPHEMERIS_TYPE":0,"CLASSIFICATION_TYPE":"U","NORAD_CAT_ID":6235,"ELEMENT_SET_NO":999,"REV_AT_EPOCH":44194,"BSTAR":7.1567046e-5,"MEAN_MOTION_DOT":-3.5e-7,"MEAN_MOTION_DDOT":0},{"OBJECT_NAME":"NOAA 3","OBJECT_ID":"1973-086A","EPOCH":"2026-03-05T07:19:26.381280","MEAN_MOTION":12.40391633,"ECCENTRICITY":0.00061845,"INCLINATION":102.2908,"RA_OF_ASC_NODE":77.2409,"ARG_OF_PERICENTER":317.1292,"MEAN_ANOMALY":54.6376,"EPHEMERIS_TYPE":0,"CLASSIFICATION_TYPE":"U","NORAD_CAT_ID":6920,"ELEMENT_SET_NO":999,"REV_AT_EPOCH":36902,"BSTAR":2.526298e-5,"MEAN_MOTION_DOT":-4.3e-7,"MEAN_MOTION_DDOT":0},{"OBJECT_NAME":"NOAA 4","OBJECT_ID":"1974-089A","EPOCH":"2026-03-04T23:53:44.173824","MEAN_MOTION":12.53201577,"ECCENTRICITY":0.0009154,"INCLINATION":102.0074,"RA_OF_ASC_NODE":75.6766,"ARG_OF_PERICENTER":37.6413,"MEAN_ANOMALY":336.8478,"EPHEMERIS_TYPE":0,"CLASSIFICATION_TYPE":"U","NORAD_CAT_ID":7529,"ELEMENT_SET_NO":999,"REV_AT_EPOCH":34647,"BSTAR":7.702161e-6,"MEAN_MOTION_DOT":-4.5e-7,"MEAN_MOTION_DDOT":0},{"OBJECT_NAME":"NOAA 5","OBJECT_ID":"1976-077A","EPOCH":"2026-03-05T05:20:58.737984","MEAN_MOTION":12.37828243,"ECCENTRICITY":0.00097772,"INCLINATION":102.2954,"RA_OF_ASC_NODE":49.7063,"ARG_OF_PERICENTER":168.7972,"MEAN_ANOMALY":204.928,"EPHEMERIS_TYPE":0,"CLASSIFICATION_TYPE":"U","NORAD_CAT_ID":9057,"ELEMENT_SET_NO":999,"REV_AT_EPOCH":24161,"BSTAR":5.6025987e-5,"MEAN_MOTION_DOT":-3.9e-7,"MEAN_MOTION_DDOT":0},{"OBJECT_NAME":"TIROS N","OBJECT_ID":"1978-096A","EPOCH":"2026-03-05T07:11:50.162496","MEAN_MOTION":14.19336208,"ECCENTRICITY":0.00104988,"INCLINATION":98.4638,"RA_OF_ASC_NODE":90.0144,"ARG_OF_PERICENTER":177.6958,"MEAN_ANOMALY":182.4269,"EPHEMERIS_TYPE":0,"CLASSIFICATION_TYPE":"U","NORAD_CAT_ID":11060,"ELEMENT_SET_NO":999,"REV_AT_EPOCH":66401,"BSTAR":0.00013027302,"MEAN_MOTION_DOT":2.32e-6,"MEAN_MOTION_DDOT":0},{"OBJECT_NAME":"NOAA 6","OBJECT_ID":"1979-057A","EPOCH":"2026-03-05T02:10:11.911296","MEAN_MOTION":14.35429615,"ECCENTRICITY":0.00094818,"INCLINATION":98.5756,"RA_OF_ASC_NODE":94.2718,"ARG_OF_PERICENTER":200.8263,"MEAN_ANOMALY":159.2537,"EPHEMERIS_TYPE":0,"CLASSIFICATION_TYPE":"U","NORAD_CAT_ID":11416,"ELEMENT_SET_NO":999,"REV_AT_EPOCH":43602,"BSTAR":0.00015860719,"MEAN_MOTION_DOT":4.12e-6,"MEAN_MOTION_DDOT":0},{"OBJECT_NAME":"NOAA 7","OBJECT_ID":"1981-059A","EPOCH":"2026-03-05T03:28:05.691648","MEAN_MOTION":14.17772191,"ECCENTRICITY":0.00111176,"INCLINATION":98.8068,"RA_OF_ASC_NODE":132.2338,"ARG_OF_PERICENTER":200.909,"MEAN_ANOMALY":159.1631,"EPHEMERIS_TYPE":0,"CLASSIFICATION_TYPE":"U","NORAD_CAT_ID":12553,"ELEMENT_SET_NO":999,"REV_AT_EPOCH":31000,"BSTAR":6.5022535e-5,"MEAN_MOTION_DOT":8.8e-7,"MEAN_MOTION_DDOT":0},{"OBJECT_NAME":"NOAA 8","OBJECT_ID":"1983-022A","EPOCH":"2026-03-05T06:51:06.011136","MEAN_MOTION":14.29764904,"ECCENTRICITY":0.0014421,"INCLINATION":98.7374,"RA_OF_ASC_NODE":77.0683,"ARG_OF_PERICENTER":198.6043,"MEAN_ANOMALY":161.4614,"EPHEMERIS_TYPE":0,"CLASSIFICATION_TYPE":"U","NORAD_CAT_ID":13923,"ELEMENT_SET_NO":999,"REV_AT_EPOCH":23622,"BSTAR":0.00010038038,"MEAN_MOTION_DOT":2.13e-6,"MEAN_MOTION_DDOT":0},{"OBJECT_NAME":"NOAA 9","OBJECT_ID":"1984-123A","EPOCH":"2026-03-05T01:10:53.310432","MEAN_MOTION":14.17037118,"ECCENTRICITY":0.00136903,"INCLINATION":99.1099,"RA_OF_ASC_NODE":88.2234,"ARG_OF_PERICENTER":285.7839,"MEAN_ANOMALY":99.2472,"EPHEMERIS_TYPE":0,"CLASSIFICATION_TYPE":"U","NORAD_CAT_ID":15427,"ELEMENT_SET_NO":999,"REV_AT_EPOCH":12867,"BSTAR":9.7894708e-5,"MEAN_MOTION_DOT":1.5e-6,"MEAN_MOTION_DDOT":0},{"OBJECT_NAME":"NOAA 10","OBJECT_ID":"1986-073A","EPOCH":"2026-03-04T17:37:50.482848","MEAN_MOTION":14.29141886,"ECCENTRICITY":0.0011172,"INCLINATION":98.6996,"RA_OF_ASC_NODE":57.1374,"ARG_OF_PERICENTER":305.0252,"MEAN_ANOMALY":227.8008,"EPHEMERIS_TYPE":0,"CLASSIFICATION_TYPE":"U","NORAD_CAT_ID":16969,"ELEMENT_SET_NO":999,"REV_AT_EPOCH":5449,"BSTAR":0.00010864,"MEAN_MOTION_DOT":2.31e-6,"MEAN_MOTION_DDOT":0},{"OBJECT_NAME":"NOAA 11","OBJECT_ID":"1988-089A","EPOCH":"2026-03-05T06:19:38.018208","MEAN_MOTION":14.15819537,"ECCENTRICITY":0.00101107,"INCLINATION":98.6093,"RA_OF_ASC_NODE":13.4534,"ARG_OF_PERICENTER":233.2642,"MEAN_ANOMALY":126.7605,"EPHEMERIS_TYPE":0,"CLASSIFICATION_TYPE":"U","NORAD_CAT_ID":19531,"ELEMENT_SET_NO":999,"REV_AT_EPOCH":93277,"BSTAR":7.0861424e-5,"MEAN_MOTION_DOT":9.7e-7,"MEAN_MOTION_DDOT":0},{"OBJECT_NAME":"NOAA 12","OBJECT_ID":"1991-032A","EPOCH":"2026-03-05T06:21:42.972480","MEAN_MOTION":14.26715898,"ECCENTRICITY":0.00131674,"INCLINATION":98.6149,"RA_OF_ASC_NODE":54.3353,"ARG_OF_PERICENTER":336.6837,"MEAN_ANOMALY":23.3745,"EPHEMERIS_TYPE":0,"CLASSIFICATION_TYPE":"U","NORAD_CAT_ID":21263,"ELEMENT_SET_NO":999,"REV_AT_EPOCH":81014,"BSTAR":9.1840209e-5,"MEAN_MOTION_DOT":1.79e-6,"MEAN_MOTION_DDOT":0},{"OBJECT_NAME":"NOAA 13","OBJECT_ID":"1993-050A","EPOCH":"2026-03-05T04:34:30.484704","MEAN_MOTION":14.13634571,"ECCENTRICITY":0.00105224,"INCLINATION":98.6928,"RA_OF_ASC_NODE":12.0634,"ARG_OF_PERICENTER":68.6339,"MEAN_ANOMALY":291.5956,"EPHEMERIS_TYPE":0,"CLASSIFICATION_TYPE":"U","NORAD_CAT_ID":22739,"ELEMENT_SET_NO":999,"REV_AT_EPOCH":67868,"BSTAR":0.00011488096,"MEAN_MOTION_DOT":1.74e-6,"MEAN_MOTION_DDOT":0},{"OBJECT_NAME":"NOAA 14","OBJECT_ID":"1994-089A","EPOCH":"2026-03-05T05:25:39.879264","MEAN_MOTION":14.14654087,"ECCENTRICITY":0.00100196,"INCLINATION":98.5015,"RA_OF_ASC_NODE":38.6532,"ARG_OF_PERICENTER":28.715,"MEAN_ANOMALY":331.4574,"EPHEMERIS_TYPE":0,"CLASSIFICATION_TYPE":"U","NORAD_CAT_ID":23455,"ELEMENT_SET_NO":999,"REV_AT_EPOCH":60850,"BSTAR":6.8546932e-5,"MEAN_MOTION_DOT":9.1e-7,"MEAN_MOTION_DDOT":0},{"OBJECT_NAME":"NOAA 15","OBJECT_ID":"1998-030A","EPOCH":"2026-03-05T06:45:35.717760","MEAN_MOTION":14.2711056,"ECCENTRICITY":0.00091461,"INCLINATION":98.5167,"RA_OF_ASC_NODE":87.678,"ARG_OF_PERICENTER":294.6846,"MEAN_ANOMALY":65.3382,"EPHEMERIS_TYPE":0,"CLASSIFICATION_TYPE":"U","NORAD_CAT_ID":25338,"ELEMENT_SET_NO":999,"REV_AT_EPOCH":44647,"BSTAR":0.00010294401,"MEAN_MOTION_DOT":2.08e-6,"MEAN_MOTION_DDOT":0},{"OBJECT_NAME":"NOAA 16","OBJECT_ID":"2000-055A","EPOCH":"2026-03-05T06:45:06.086880","MEAN_MOTION":14.13896789,"ECCENTRICITY":0.00094242,"INCLINATION":98.4707,"RA_OF_ASC_NODE":84.0137,"ARG_OF_PERICENTER":236.0943,"MEAN_ANOMALY":123.9335,"EPHEMERIS_TYPE":0,"CLASSIFICATION_TYPE":"U","NORAD_CAT_ID":26536,"ELEMENT_SET_NO":999,"REV_AT_EPOCH":60904,"BSTAR":9.7676145e-5,"MEAN_MOTION_DOT":1.44e-6,"MEAN_MOTION_DDOT":0}]
