NOAA 1                  
1 04793U 70106A   26064.10164899 -.00000027  00000+0  98535-4 0  9996
2 04793 101.3522 103.3252 0031702 189.8568 234.8516 12.54049236527642
NOAA 2 (ITOS-D)         
1 06235U 72082A   26064.33458895 -.00000035  00000+0  71567-4 0  9996
2 06235 102.0168  81.7386 0004017  13.6227 357.3827 12.53211727441940
NOAA 3                  
1 06920U 73086A   26064.30516645 -.00000043  00000+0  25263-4 0  9998
2 06920 102.2908  77.2409 0006184 317.1292  54.6376 12.40391633369027
NOAA 4                  
1 07529U 74089A   26063.99565016 -.00000045  00000+0  77022-5 0  9991
2 07529 102.0074  75.6766 0009154  37.6413 336.8478 12.53201577346475
NOAA 5                  
1 09057U 76077A   26064.22290206 -.00000039  00000+0  56026-4 0  9994
2 09057 102.2954  49.7063 0009777 168.7972 204.9280 12.37828243241614
TIROS N                 
1 11060U 78096A   26064.29988614  .00000232  00000+0  13027-3 0  9995
2 11060  98.4638  90.0144 0010498 177.6958 182.4269 14.19336208664017
NOAA 6                  
1 11416U 79057A   26064.09041564  .00000412  00000+0  15861-3 0  9998
2 11416  98.5756  94.2718 0009481 200.8263 159.2537 14.35429615436026
NOAA 7                  
1 12553U 81059A   26064.14451032  .00000088  00000+0  65023-4 0  9992
2 12553  98.8068 132.2338 0011117 200.9090 159.1631 14.17772191310000
NOAA 8                  
1 13923U 83022A   26064.28548624  .00000213  00000+0  10038-3 0  9990
2 13923  98.7374  77.0683 0014421 198.6043 161.4614 14.29764904236226
NOAA 9                  
1 15427U 84123A   26064.04922813  .00000150  00000+0  97895-4 0  9991
2 15427  99.1099  88.2234 0013690 285.7839  99.2472 14.17037118128676
NOAA 10                 
1 16969U 86073A   26063.73461207  .00000231  00000+0  10864-3 0  9999
2 16969  98.6996  57.1374 0011172 305.0252 227.8008 14.29141886 54499
NOAA 11                 
1 19531U 88089A   26064.26363447  .00000097  00000+0  70861-4 0  9996
2 19531  98.6093  13.4534 0010110 233.2642 126.7605 14.15819537932770
NOAA 12                 
1 21263U 91032A   26064.26508070  .00000179  00000+0  91840-4 0  9997
2 21263  98.6149  54.3353 0013167 336.6837  23.3745 14.26715898810149
NOAA 13                 
1 22739U 93050A   26064.19063061  .00000174  00000+0  11488-3 0  9990
2 22739  98.6928  12.0634 0010522  68.6339 291.5956 14.13634571678685
NOAA 14                 
1 23455U 94089A   26064.22615601  .00000091  00000+0  68547-4 0  9993
2 23455  98.5015  38.6532 0010019  28.7150 331.4574 14.14654087608506
NOAA 15                 
1 25338U 98030A   26064.28166340  .00000208  00000+0  10294-3 0  9997
2 25338  98.5167  87.6780 0009146 294.6846  65.3382 14.27110560446473
NOAA 16                 
1 26536U 00055A   26064.28132045  .00000144  00000+0  97676-4 0  9992
2 26536  98.4707  84.0137 0009424 236.0943 123.9335 14.13896789609049
